<ndm xsi:noNamespaceSchemaLocation="https://sanaregistry.org/r/ndmxml_unqualified/ndmxml-3.0.0-master-3.0.xsd">
<omm id="CCSDS_OMM_VERS" version="3.0">
<header>
<COMMENT>GENERATED VIA SPACE-TRACK.ORG API</COMMENT>
<CREATION_DATE>2025-06-01T17:42:04</CREATION_DATE>
<ORIGINATOR>18 SPCS</ORIGINATOR>
</header>
<body>
<segment>
<metadata>
<OBJECT_NAME>CZ-6A R/B DEB</OBJECT_NAME>
<OBJECT_ID>2024-140ADR</OBJECT_ID>
<CENTER_NAME>EARTH</CENTER_NAME>
<REF_FRAME>TEME</REF_FRAME>
<TIME_SYSTEM>UTC</TIME_SYSTEM>
<MEAN_ELEMENT_THEORY>SGP4</MEAN_ELEMENT_THEORY>
</metadata>
<data>
<meanElements>
<EPOCH>2025-06-01T10:18:04.618368</EPOCH>
<MEAN_MOTION>14.13986557</MEAN_MOTION>
<ECCENTRICITY>0.00763590</ECCENTRICITY>
<INCLINATION>88.9515</INCLINATION>
<RA_OF_ASC_NODE>316.2222</RA_OF_ASC_NODE>
<ARG_OF_PERICENTER>357.2552</ARG_OF_PERICENTER>
<MEAN_ANOMALY>2.8205</MEAN_ANOMALY>
</meanElements>
<tleParameters>
<EPHEMERIS_TYPE>0</EPHEMERIS_TYPE>
<CLASSIFICATION_TYPE>U</CLASSIFICATION_TYPE>
<NORAD_CAT_ID>63394</NORAD_CAT_ID>
<ELEMENT_SET_NO>999</ELEMENT_SET_NO>
<REV_AT_EPOCH>3684</REV_AT_EPOCH>
<BSTAR>0.00083066000000</BSTAR>
<MEAN_MOTION_DOT>0.00001635</MEAN_MOTION_DOT>
<MEAN_MOTION_DDOT>0.0000000000000</MEAN_MOTION_DDOT>
</tleParameters>
<userDefinedParameters>
<USER_DEFINED parameter="SEMIMAJOR_AXIS">7223.899</USER_DEFINED>
<USER_DEFINED parameter="PERIOD">101.840</USER_DEFINED>
<USER_DEFINED parameter="APOAPSIS">900.925</USER_DEFINED>
<USER_DEFINED parameter="PERIAPSIS">790.603</USER_DEFINED>
<USER_DEFINED parameter="OBJECT_TYPE">DEBRIS</USER_DEFINED>
<USER_DEFINED parameter="RCS_SIZE">SMALL</USER_DEFINED>
<USER_DEFINED parameter="COUNTRY_CODE">PRC</USER_DEFINED>
<USER_DEFINED parameter="LAUNCH_DATE">2024-08-06</USER_DEFINED>
<USER_DEFINED parameter="SITE">TSC</USER_DEFINED>
<USER_DEFINED parameter="DECAY_DATE"/>
<USER_DEFINED parameter="FILE">4744985</USER_DEFINED>
<USER_DEFINED parameter="GP_ID">288934696</USER_DEFINED>
</userDefinedParameters>
</data>
</segment>
</body>
</omm>
</ndm>
